{
  "generated_at": "2026-05-15T08:49:17+00:00",
  "source": "celestrak.org",
  "satellite_count": 9,
  "satellites": [
    {
      "id": "terra",
      "name": "TERRA",
      "platform": "EOS",
      "sensor": "MODIS",
      "swath_km": 2330,
      "color": "#39d0d8",
      "norad": 25994,
      "tle1": "1 25994U 99068A   26134.95200525  .00000236  00000+0  57056-4 0  9992",
      "tle2": "2 25994  97.9479 185.8120 0001971  13.4372 109.7429 14.61074995404757"
    },
    {
      "id": "aqua",
      "name": "AQUA",
      "platform": "EOS",
      "sensor": "MODIS",
      "swath_km": 2330,
      "color": "#2bb673",
      "norad": 27424,
      "tle1": "1 27424U 02022A   26134.93480610  .00000486  00000+0  10660-3 0  9995",
      "tle2": "2 27424  98.4261 103.5590 0002084  75.5601 359.2711 14.62103883278418"
    },
    {
      "id": "snpp",
      "name": "SUOMI NPP",
      "platform": "JPSS",
      "sensor": "VIIRS",
      "swath_km": 3000,
      "color": "#ff8c42",
      "norad": 37849,
      "tle1": "1 37849U 11061A   26134.93006058  .00000043  00000+0  41421-4 0  9999",
      "tle2": "2 37849  98.7942  76.0363 0002811  70.9831 289.1649 14.19509987753723"
    },
    {
      "id": "noaa20",
      "name": "NOAA 20",
      "platform": "JPSS",
      "sensor": "VIIRS",
      "swath_km": 3000,
      "color": "#ffaa00",
      "norad": 43013,
      "tle1": "1 43013U 17073A   26134.87265991  .00000028  00000+0  34335-4 0  9993",
      "tle2": "2 43013  98.7762  74.6340 0001456  48.6041 311.5260 14.19505123439741"
    },
    {
      "id": "noaa21",
      "name": "NOAA 21",
      "platform": "JPSS",
      "sensor": "VIIRS",
      "swath_km": 3000,
      "color": "#ff5a3a",
      "norad": 54234,
      "tle1": "1 54234U 22150A   26134.90677923  .00000008  00000+0  24405-4 0  9993",
      "tle2": "2 54234  98.7050  74.2572 0000790 330.5058  29.6073 14.19559083181828"
    },
    {
      "id": "sentinel2a",
      "name": "SENTINEL-2A",
      "platform": "Copernicus",
      "sensor": "MSI",
      "swath_km": 290,
      "color": "#b388ff",
      "norad": 40697,
      "tle1": "1 40697U 15028A   26134.92796263 -.00000152  00000+0 -41399-4 0  9991",
      "tle2": "2 40697  98.5691 210.2499 0001212  84.9558 275.1764 14.30812741568976"
    },
    {
      "id": "sentinel2b",
      "name": "SENTINEL-2B",
      "platform": "Copernicus",
      "sensor": "MSI",
      "swath_km": 290,
      "color": "#9d6dff",
      "norad": 42063,
      "tle1": "1 42063U 17013A   26134.92075922 -.00000174  00000+0 -49750-4 0  9991",
      "tle2": "2 42063  98.5698 210.1628 0001278  90.3741 269.7588 14.30817690479884"
    },
    {
      "id": "sentinel3a",
      "name": "SENTINEL-3A",
      "platform": "Copernicus",
      "sensor": "OLCI",
      "swath_km": 1270,
      "color": "#7a4fff",
      "norad": 41335,
      "tle1": "1 41335U 16011A   26134.90487703  .00000062  00000+0  43754-4 0  9993",
      "tle2": "2 41335  98.6259 202.7636 0001101 106.6479 253.4823 14.26736329533314"
    },
    {
      "id": "sentinel3b",
      "name": "SENTINEL-3B",
      "platform": "Copernicus",
      "sensor": "OLCI",
      "swath_km": 1270,
      "color": "#5e3bff",
      "norad": 43437,
      "tle1": "1 43437U 18039A   26134.45723868  .00000065  00000+0  44811-4 0  9993",
      "tle2": "2 43437  98.6258 202.4706 0001444  79.5615 280.5728 14.26738859419311"
    }
  ]
}